#aV2023 12  8  0  0  0.00000000     288 DD+AD WGS84 FIT  NGA
## 2291 432000.00000000   300.00000000 60286 0.0000000000000
+   32     1  2  3  4  5  6  7  8  9 10 11 12 13 14 15 16 17
+         18 19 20 21 22 23 24 25 26 27 28 29 30 31 32  0  0
+          0  0  0  0  0  0  0  0  0  0  0  0  0  0  0  0  0
+          0  0  0  0  0  0  0  0  0  0  0  0  0  0  0  0  0
+          0  0  0  0  0  0  0  0  0  0  0  0  0  0  0  0  0
++         2  2  2  2  2  2  2  2  2  2  2  2  2  2  2  2  2
++         2  2  2  2  2  2  2  2  2  2  2  2  2  2  2  0  0
++         0  0  0  0  0  0  0  0  0  0  0  0  0  0  0  0  0
++         0  0  0  0  0  0  0  0  0  0  0  0  0  0  0  0  0
++         0  0  0  0  0  0  0  0  0  0  0  0  0  0  0  0  0
%c cc cc ccc ccc cccc cccc cccc cccc ccccc ccccc ccccc ccccc
%c cc cc ccc ccc cccc cccc cccc cccc ccccc ccccc ccccc ccccc
%f  0.0000000  0.000000000  0.00000000000  0.000000000000000
%f  0.0000000  0.000000000  0.00000000000  0.000000000000000
%i    0    0    0    0      0      0      0      0         0
%i    0    0    0    0      0      0      0      0         0
/*      NGA, ST. LOUIS,MO.                                  
/*   EPHEMERIS COMPUTED FROM 2 DAYS OF DATA                 
/*   EPOCHA v8 SMOOTHER                                     
/*   G2139 IERS2010 SATIGS SATAPC                           
*  2023 12  8 11 55  0.00000000
P  1 -14013.349844  20808.846868   7841.521490    163.705690                    
V  1   2019.667242 -10509.125185  30493.283803      0.004432                    
P  2 -15334.371579  16152.050329  14814.685299   -518.436972                    
V  2   3181.812933 -17830.979136  23750.117801      0.052724                    
P  3 -19934.552084  11885.210168 -12957.015427     39.697616                    
V  3 -16301.726681    768.807150  26180.661990      0.273012                    
P  4  -8926.731400  12873.921591 -21421.795917    233.960604                    
V  4 -16868.692555 -21387.150711  -5949.572690      0.101753                    
P  5  25975.044397  -5746.457207    499.282708   -153.335190                    
V  5   1331.639817   2255.178507 -31870.940446     -0.014429                    
P  6   9554.662155  13158.587756 -20907.016246    484.177430                    
V  6 -10473.325986  24522.971703  10708.099586     -0.112544                    
P  7  -3813.893025  25042.606517   7593.382048     -6.616060                    
V  7  -6332.831079   7367.393873 -29799.500279     -0.097059                    
P  8 -15286.111201   5097.986501  21095.262304   -155.931083                    
V  8 -17219.888984 -20702.144916  -7037.936995     -0.018723                    
P  9   2000.131655  20557.812587 -16754.416133     20.437420                    
V  9 -15138.491659 -14876.165738 -20222.670249      0.116290                    
P 10 -12973.823611 -11670.912636  20316.948752    -64.486184                    
V 10  24788.099068  -4632.006348  12975.261335     -0.014946                    
P 11  15494.993316   1654.235379 -21478.167017   -492.420597                    
V 11 -10551.379882  25204.399238  -5714.454169     -0.153958                    
P 12  21153.834403 -10494.338407 -12365.971319   -455.262127                    
V 12  15419.776855    857.585913  26317.136760     -0.039843                    
P 13  18298.078007   6448.611269  18032.982551    603.481054                    
V 13  10807.481393  20580.550149 -17912.153159      0.039321                    
P 14   8888.552633  13945.168452  20838.910359    265.084212                    
V 14 -26098.363519   4189.408636   8161.935816      0.105837                    
P 15  14912.931808  -6838.799315  20433.447932    104.860293                    
V 15  19420.035816  18964.735503  -7432.290364      0.038024                    
P 16 -26372.288464  -1537.170337  -4884.548798   -408.041490                    
V 16   5546.103898  -2634.540182 -30728.863972      0.070768                    
P 17  11977.558031  23097.804941   5385.807195    722.302790                    
V 17  -5670.552966  -3697.509058  31103.545176     -0.005197                    
P 18   3629.229722 -24734.774661   8705.488301   -500.697850                    
V 18   6318.920504  -9387.762728 -29532.086677     -0.102403                    
P 19  16836.897359  20345.419060  -4445.466182    409.612012                    
V 19   1110.237969   5651.763799  31085.429296      0.052420                    
P 20  23578.028284    917.373457 -11959.900195    397.696932                    
V 20 -13634.963456   7573.309906 -26360.383765     -0.019133                    
P 21 -16027.956741  12177.821040  17325.058067    142.135557                    
V 21   3806.165982 -21171.453339  19887.003016     -0.010962                    
P 22  15609.047751  11721.448755  18320.376361     69.778527                    
V 22 -22319.804651   3075.964813  17756.845431     -0.068192                    
P 23   1111.962443 -15165.942584  21773.111155    112.371913                    
V 23  27181.635649  -4698.000372  -4845.275525      0.067892                    
P 24  14949.666256 -16877.948679  13297.686192   -388.856065                    
V 24  -1646.501415  18005.575889  24403.360876     -0.082764                    
P 25   9554.177729 -15700.777917 -19405.571406    480.645677                    
V 25  23959.246574  -2688.727677  14484.692734      0.015245                    
P 26 -22538.988459  -5015.365085 -13581.291679    210.885872                    
V 26  15897.688156  -6404.624178 -23899.994513     -0.029974                    
P 27 -20379.398610  -8922.397814  14559.865746    -80.323530                    
V 27 -10514.662128 -15650.444147 -23465.238424     -0.048798                    
P 28  -9156.311992 -15440.151307 -19599.830104    -64.775066                    
V 28   9251.561788 -23079.979491  13872.425377     -0.096602                    
P 29    279.927287 -20188.840921 -17247.517460   -609.913973                    
V 29  13689.066587  17064.039178 -19899.471089      0.002584                    
P 30   4186.836120  21040.077149  15611.024425   -459.789902                    
V 30  -9601.542571  17497.257004 -21435.934551      0.042709                    
P 31 -13938.075603  -6717.940219 -21781.224704   -226.432246                    
V 31  10567.046016 -25076.166598   1389.087355     -0.003164                    
P 32 -15966.345991 -21304.925840   1832.681061   -594.224969                    
V 32   3360.360007    -68.792506  31501.516297     -0.038563                    
EOF
